{"type": "FeatureCollection", "features": [ {"type": "Feature", "properties": {"norad_id": 30435, "name": "FENGYUN 1C DEB", "group": "fengyun-1c-debris", "lat": 18.318013853351612, "lon": 155.70697048982785, "alt_km": 862.632015345328, "timestamp": "2025-12-12T09:49:09.007926+00:00", "meta": {"OBJECT_NAME": "FENGYUN 1C DEB", "OBJECT_ID": "1999-025AEW", "EPOCH": "2025-12-11T22:44:38.739840", "MEAN_MOTION": 13.79615408, "ECCENTRICITY": 0.0207573, "INCLINATION": 99.0173, "RA_OF_ASC_NODE": 332.2537, "ARG_OF_PERICENTER": 114.0907, "MEAN_ANOMALY": 274.8129, "EPHEMERIS_TYPE": 0, "CLASSIFICATION_TYPE": "U", "NORAD_CAT_ID": 30435, "ELEMENT_SET_NO": 999, "REV_AT_EPOCH": 94149, "BSTAR": 0.0022039, "MEAN_MOTION_DOT": 2.633e-05, "MEAN_MOTION_DDOT": 0}, "tle": {"line1": "1 30435U 99025AEW 25345.94767060  .00002633  00000+0  22039-2 0  9999", "line2": "2 30435  99.0173 332.2537 0207573 114.0907 274.8129 13.79615408941491"}}, "geometry": {"type": "Point", "coordinates": [155.70697048982785, 18.318013853351612]}}, {"type": "Feature", "properties": {"norad_id": 30436, "name": "FENGYUN 1C DEB", "group": "fengyun-1c-debris", "lat": 20.036213123724995, "lon": 63.522099508148074, "alt_km": 754.125789413376, "timestamp": "2025-12-12T09:49:09.007937+00:00", "meta": {"OBJECT_NAME": "FENGYUN 1C DEB", "OBJECT_ID": "1999-025AEX", "EPOCH": "2025-12-11T19:52:30.679968", "MEAN_MOTION": 14.22275581, "ECCENTRICITY": 0.00972706, "INCLINATION": 98.4258, "RA_OF_ASC_NODE": 239.8681, "ARG_OF_PERICENTER": 136.234, "MEAN_ANOMALY": 289.7831, "EPHEMERIS_TYPE": 0, "CLASSIFICATION_TYPE": "U", "NORAD_CAT_ID": 30436, "ELEMENT_SET_NO": 999, "REV_AT_EPOCH": 96424, "BSTAR": 0.0028788519, "MEAN_MOTION_DOT": 6.675e-05, "MEAN_MOTION_DDOT": 0}, "tle": {"line1": "1 30436U 99025AEX 25345.82813287  .00006675  00000+0  28789-2 0  9998", "line2": "2 30436  98.4258 239.8681 0097270 136.2340 289.7831 14.22275581964245"}}, "geometry": {"type": "Point", "coordinates": [63.522099508148074, 20.036213123724995]}}, {"type": "Feature", "properties": {"norad_id": 30437, "name": "FENGYUN 1C DEB", "group": "fengyun-1c-debris", "lat": 13.433991773796162, "lon": -171.71692014665732, "alt_km": 593.8830674173469, "timestamp": "2025-12-12T09:49:09.007947+00:00", "meta": {"OBJECT_NAME": "FENGYUN 1C DEB", "OBJECT_ID": "1999-025AEY", "EPOCH": "2025-12-11T18:48:07.595136", "MEAN_MOTION": 14.8797353, "ECCENTRICITY": 0.00358206, "INCLINATION": 98.9221, "RA_OF_ASC_NODE": 5.4293, "ARG_OF_PERICENTER": 105.1047, "MEAN_ANOMALY": 311.0183, "EPHEMERIS_TYPE": 0, "CLASSIFICATION_TYPE": "U", "NORAD_CAT_ID": 30437, "ELEMENT_SET_NO": 999, "REV_AT_EPOCH": 99173, "BSTAR": 0.0033467379, "MEAN_MOTION_DOT": 0.00031121, "MEAN_MOTION_DDOT": 0}, "tle": {"line1": "1 30437U 99025AEY 25345.78342124  .00031121  00000+0  33467-2 0  9994", "line2": "2 30437  98.9221   5.4293 0035820 105.1047 311.0183 14.87973530991732"}}, "geometry": {"type": "Point", "coordinates": [-171.71692014665732, 13.433991773796162]}}, {"type": "Feature", "properties": {"norad_id": 30438, "name": "FENGYUN 1C DEB", "group": "fengyun-1c-debris", "lat": 81.23481966813911, "lon": -89.26567243261702, "alt_km": 924.954792888152, "timestamp": "2025-12-12T09:49:09.007958+00:00", "meta": {"OBJECT_NAME": "FENGYUN 1C DEB", "OBJECT_ID": "1999-025AEZ", "EPOCH": "2025-12-12T00:45:11.543040", "MEAN_MOTION": 13.92095428, "ECCENTRICITY": 0.0134809, "INCLINATION": 98.7501, "RA_OF_ASC_NODE": 3.0993, "ARG_OF_PERICENTER": 188.7087, "MEAN_ANOMALY": 171.1733, "EPHEMERIS_TYPE": 0, "CLASSIFICATION_TYPE": "U", "NORAD_CAT_ID": 30438, "ELEMENT_SET_NO": 999, "REV_AT_EPOCH": 95296, "BSTAR": 0.0017784, "MEAN_MOTION_DOT": 2.409e-05, "MEAN_MOTION_DDOT": 0}, "tle": {"line1": "1 30438U 99025AEZ 25346.03138360  .00002409  00000+0  17784-2 0  9990", "line2": "2 30438  98.7501   3.0993 0134809 188.7087 171.1733 13.92095428952965"}}, "geometry": {"type": "Point", "coordinates": [-89.26567243261702, 81.23481966813911]}}, {"type": "Feature", "properties": {"norad_id": 30439, "name": "FENGYUN 1C DEB", "group": "fengyun-1c-debris", "lat": 0.2799092813078318, "lon": -1.9094793954532965, "alt_km": 840.2423278900806, "timestamp": "2025-12-12T09:49:09.007969+00:00", "meta": {"OBJECT_NAME": "FENGYUN 1C DEB", "OBJECT_ID": "1999-025AFA", "EPOCH": "2025-12-11T23:41:05.618112", "MEAN_MOTION": 14.08837865, "ECCENTRICITY": 0.0038822, "INCLINATION": 98.75, "RA_OF_ASC_NODE": 357.7238, "ARG_OF_PERICENTER": 338.9478, "MEAN_ANOMALY": 40.8412, "EPHEMERIS_TYPE": 0, "CLASSIFICATION_TYPE": "U", "NORAD_CAT_ID": 30439, "ELEMENT_SET_NO": 999, "REV_AT_EPOCH": 96781, "BSTAR": 0.00069337, "MEAN_MOTION_DOT": 1.163e-05, "MEAN_MOTION_DDOT": 0}, "tle": {"line1": "1 30439U 99025AFA 25345.98687058  .00001163  00000+0  69337-3 0  9995", "line2": "2 30439  98.7500 357.7238 0038822 338.9478  40.8412 14.08837865967810"}}, "geometry": {"type": "Point", "coordinates": [-1.9094793954532965, 0.2799092813078318]}}, {"type": "Feature", "properties": {"norad_id": 30441, "name": "FENGYUN 1C DEB", "group": "fengyun-1c-debris", "lat": 46.30987934630212, "lon": 66.08962842389207, "alt_km": 1082.6394956970007, "timestamp": "2025-12-12T09:49:09.007979+00:00", "meta": {"OBJECT_NAME": "FENGYUN 1C DEB", "OBJECT_ID": "1999-025AFC", "EPOCH": "2025-12-12T04:21:27.921024", "MEAN_MOTION": 13.77677198, "ECCENTRICITY": 0.0183792, "INCLINATION": 99.1348, "RA_OF_ASC_NODE": 75.567, "ARG_OF_PERICENTER": 259.1686, "MEAN_ANOMALY": 98.8733, "EPHEMERIS_TYPE": 0, "CLASSIFICATION_TYPE": "U", "NORAD_CAT_ID": 30441, "ELEMENT_SET_NO": 999, "REV_AT_EPOCH": 94862, "BSTAR": 0.00084525, "MEAN_MOTION_DOT": 9.12e-06, "MEAN_MOTION_DDOT": 0}, "tle": {"line1": "1 30441U 99025AFC 25346.18157316  .00000912  00000+0  84525-3 0  9997", "line2": "2 30441  99.1348  75.5670 0183792 259.1686  98.8733 13.77677198948628"}}, "geometry": {"type": "Point", "coordinates": [66.08962842389207, 46.30987934630212]}}, {"type": "Feature", "properties": {"norad_id": 30442, "name": "FENGYUN 1C DEB", "group": "fengyun-1c-debris", "lat": 34.281235267400746, "lon": 73.89125586835252, "alt_km": 804.9484139834285, "timestamp": "2025-12-12T09:49:09.007990+00:00", "meta": {"OBJECT_NAME": "FENGYUN 1C DEB", "OBJECT_ID": "1999-025AFD", "EPOCH": "2025-12-11T16:50:52.484640", "MEAN_MOTION": 14.28593523, "ECCENTRICITY": 0.00545722, "INCLINATION": 98.8661, "RA_OF_ASC_NODE": 79.2809, "ARG_OF_PERICENTER": 290.5662, "MEAN_ANOMALY": 68.9669, "EPHEMERIS_TYPE": 0, "CLASSIFICATION_TYPE": "U", "NORAD_CAT_ID": 30442, "ELEMENT_SET_NO": 999, "REV_AT_EPOCH": 97147, "BSTAR": 0.003311848, "MEAN_MOTION_DOT": 8.409e-05, "MEAN_MOTION_DDOT": 0}, "tle": {"line1": "1 30442U 99025AFD 25345.70199635  .00008409  00000+0  33118-2 0  9995", "line2": "2 30442  98.8661  79.2809 0054572 290.5662  68.9669 14.28593523971475"}}, "geometry": {"type": "Point", "coordinates": [73.89125586835252, 34.281235267400746]}}, {"type": "Feature", "properties": {"norad_id": 30443, "name": "FENGYUN 1C DEB", "group": "fengyun-1c-debris", "lat": -9.59571062919571, "lon": 112.007443826968, "alt_km": 790.4912147580453, "timestamp": "2025-12-12T09:49:09.008001+00:00", "meta": {"OBJECT_NAME": "FENGYUN 1C DEB", "OBJECT_ID": "1999-025AFE", "EPOCH": "2025-12-11T14:33:12.262752", "MEAN_MOTION": 14.36770892, "ECCENTRICITY": 0.0027887, "INCLINATION": 98.8482, "RA_OF_ASC_NODE": 292.6918, "ARG_OF_PERICENTER": 342.0905, "MEAN_ANOMALY": 17.9295, "EPHEMERIS_TYPE": 0, "CLASSIFICATION_TYPE": "U", "NORAD_CAT_ID": 30443, "ELEMENT_SET_NO": 999, "REV_AT_EPOCH": 97417, "BSTAR": 0.0039341901, "MEAN_MOTION_DOT": 0.00011633, "MEAN_MOTION_DDOT": 0}, "tle": {"line1": "1 30443U 99025AFE 25345.60639193  .00011633  00000+0  39342-2 0  9991", "line2": "2 30443  98.8482 292.6918 0027887 342.0905  17.9295 14.36770892974175"}}, "geometry": {"type": "Point", "coordinates": [112.007443826968, -9.59571062919571]}}, {"type": "Feature", "properties": {"norad_id": 30445, "name": "FENGYUN 1C DEB", "group": "fengyun-1c-debris", "lat": 21.328418142890737, "lon": 121.22990547148632, "alt_km": 786.1088872323671, "timestamp": "2025-12-12T09:49:09.008011+00:00", "meta": {"OBJECT_NAME": "FENGYUN 1C DEB", "OBJECT_ID": "1999-025AFG", "EPOCH": "2025-12-11T19:50:09.592224", "MEAN_MOTION": 14.48736564, "ECCENTRICITY": 0.01060256, "INCLINATION": 98.8349, "RA_OF_ASC_NODE": 297.1388, "ARG_OF_PERICENTER": 21.0566, "MEAN_ANOMALY": 339.4942, "EPHEMERIS_TYPE": 0, "CLASSIFICATION_TYPE": "U", "NORAD_CAT_ID": 30445, "ELEMENT_SET_NO": 999, "REV_AT_EPOCH": 99171, "BSTAR": 0.0012640993, "MEAN_MOTION_DOT": 5.069e-05, "MEAN_MOTION_DDOT": 0}, "tle": {"line1": "1 30445U 99025AFG 25345.82649991  .00005069  00000+0  12641-2 0  9993", "line2": "2 30445  98.8349 297.1388 0106025  21.0566 339.4942 14.48736564991710"}}, "geometry": {"type": "Point", "coordinates": [121.22990547148632, 21.328418142890737]}}, {"type": "Feature", "properties": {"norad_id": 30446, "name": "FENGYUN 1C DEB", "group": "fengyun-1c-debris", "lat": -57.434200005965494, "lon": 82.6345738708226, "alt_km": 773.0432427085989, "timestamp": "2025-12-12T09:49:09.008022+00:00", "meta": {"OBJECT_NAME": "FENGYUN 1C DEB", "OBJECT_ID": "1999-025AFH", "EPOCH": "2025-12-11T22:27:18.667008", "MEAN_MOTION": 14.44710066, "ECCENTRICITY": 0.0034968, "INCLINATION": 98.6133, "RA_OF_ASC_NODE": 68.4265, "ARG_OF_PERICENTER": 100.7207, "MEAN_ANOMALY": 259.7923, "EPHEMERIS_TYPE": 0, "CLASSIFICATION_TYPE": "U", "NORAD_CAT_ID": 30446, "ELEMENT_SET_NO": 999, "REV_AT_EPOCH": 98165, "BSTAR": 0.0028601, "MEAN_MOTION_DOT": 9.962e-05, "MEAN_MOTION_DDOT": 0}, "tle": {"line1": "1 30446U 99025AFH 25345.93563272  .00009962  00000+0  28601-2 0  9992", "line2": "2 30446  98.6133  68.4265 0034968 100.7207 259.7923 14.44710066981656"}}, "geometry": {"type": "Point", "coordinates": [82.6345738708226, -57.434200005965494]}}]}